STARLINK-35667          
1 66400U 25257W   25338.63316881  .00171072  00000+0  30129-2 0  9998
2 66400  53.1595 302.5381 0001640  82.5247 277.5949 15.49348460  5122
STARLINK-35668          
1 66401U 25257X   25338.63282371  .00092988  00000+0  16591-2 0  9990
2 66401  53.1594 302.5360 0001383  84.7482 275.3685 15.49327269  5125
STARLINK-35644          
1 66402U 25257Y   25338.37547587  .00115355  00000+0  20479-2 0  9999
2 66402  53.1595 303.7737 0001366  92.3503 267.7663 15.49361816  5080
STARLINK-35602          
1 66403U 25257Z   25338.50346339  .00073579  00000+0  13174-2 0  9992
2 66403  53.1594 303.1506 0001642  71.9763 288.1425 15.49333398  5106
STARLINK-35691          
1 66404U 25257AA  25338.63214213  .00200705  00000+0  35186-2 0  9992
2 66404  53.1593 302.5309 0002641  77.8032 282.3272 15.49358169  5125
STARLINK-35683          
1 66405U 25257AB  25338.63179391  .00178873  00000+0  31464-2 0  9995
2 66405  53.1592 302.5279 0001518  92.4448 267.6735 15.49351449  5053
STARLINK-34840          
1 66406U 25257AC  25338.63076193  .00127421  00000+0  22592-2 0  9997
2 66406  53.1590 302.5205 0001528  83.4462 276.6721 15.49343612  5067
STARLINK-35686          
1 66407U 25257AD  25338.63145033  .00172642  00000+0  30392-2 0  9990
2 66407  53.1591 302.5257 0001431  80.3679 279.7491 15.49354281  5124
STARLINK-35679          
1 66408U 25257AE  25338.43757934  .00104147  00000+0  18523-2 0  9995
2 66408  53.1595 303.4498 0001442  80.5136 279.6036 15.49361629  5092
CHUTIAN-2 A             
1 66409U 25256A   25338.65161279  .00000144  00000+0  48654-4 0  9992
2 66409  98.2770  43.5566 0013366 202.1631 157.8987 14.49919426  3707
CHUTIAN-2 B             
1 66410U 25256B   25338.63906266  .00001308  00000+0  34151-3 0  9994
2 66410  98.2800  43.5789 0013343 206.2777 153.7742 14.51009403  3703
ZK-1A R/B               
1 66411U 25256C   25338.65235907  .00024635  00000+0  10702-2 0  9997
2 66411  98.3247  45.8472 0229312 271.9996  85.4983 15.01679710  3833
